[Satellite]
VERSION=1.1
NAME=Al Farabi 2
NICKNAME=Al Farabi 2
TLE1=1 43805U 18099AZ  19311.62521322  .00000655  00000-0  64425-4 0  9996
TLE2=2 43805  97.7305  21.7513 0014570 210.3409 149.6970 14.95427593 50648
STATUS=0
